NORAD_CAT_ID,OBJECT_NAME,OBJECT_TYPE,EPOCH,MEAN_MOTION,ECCENTRICITY,INCLINATION,RA_OF_ASC_NODE,ARG_OF_PERICENTER,MEAN_ANOMALY,BSTAR,MEAN_MOTION_DOT,MEAN_MOTION_DDOT,TLE_LINE0,TLE_LINE1,TLE_LINE2,SEMIMAJOR_AXIS,PERIOD,APOGEE,PERIGEE,DECAYED
52479.0,STARLINK-3878,PAYLOAD,2024-02-25 23:07:56,15.08851084,0.000157,53.2165,143.3476,86.9949,273.1223,0.00045008,6.884e-05,0.0,0 STARLINK-3878,1 52479U 22049AE  24056.96384392  .00006884  00000-0  45008-3 0  9991,2 52479  53.2165 143.3476 0001570  86.9949 273.1223 15.08851084100424,6917.847,95.437,540.798,538.625,0.0
52479.0,STARLINK-3878,PAYLOAD,2024-02-26 11:51:00,15.08853426,0.0001731,53.2157,140.9696,89.3124,270.8067,0.00034198,5.161e-05,0.0,0 STARLINK-3878,1 52479U 22049AE  24057.49376114  .00005161  00000-0  34198-3 0  9998,2 52479  53.2157 140.9696 0001731  89.3124 270.8067 15.08853426101583,6917.839,95.437,540.902,538.507,0.0
52479.0,STARLINK-3878,PAYLOAD,2024-02-27 11:41:48,15.08837148,0.0001351,53.2161,136.5066,89.3917,270.723,0.00022625,3.314e-05,0.0,0 STARLINK-3878,1 52479U 22049AE  24058.48736736  .00003314  00000-0  22625-3 0  9998,2 52479  53.2161 136.5066 0001351  89.3917 270.7230 15.08837148100659,6917.889,95.438,540.689,538.819,0.0
52479.0,STARLINK-3878,PAYLOAD,2024-02-28 11:32:35,15.08847455,0.0001274,53.2159,132.0471,85.6978,274.416,0.00041399,6.308e-05,0.0,0 STARLINK-3878,1 52479U 22049AE  24059.48096781  .00006308  00000-0  41399-3 0  9993,2 52479  53.2159 132.0471 0001274  85.6978 274.4160 15.08847455101888,6917.858,95.437,540.604,538.841,0.0
52479.0,STARLINK-3878,PAYLOAD,2024-02-29 05:01:50,15.08840327,0.0001349,53.216,128.7768,85.3963,274.7183,0.00016205,2.292e-05,0.0,0 STARLINK-3878,1 52479U 22049AE  24060.20961050  .00002292  00000-0  16205-3 0  9991,2 52479  53.2160 128.7768 0001349  85.3963 274.7183 15.08840327100917,6917.879,95.438,540.678,538.811,0.0
52479.0,STARLINK-3878,PAYLOAD,2024-02-29 11:23:22,15.08848755,0.0001381,53.2163,127.5873,87.9564,272.1586,0.00030913,4.636e-05,0.0,0 STARLINK-3878,1 52479U 22049AE  24060.47456712  .00004636  00000-0  30913-3 0  9990,2 52479  53.2163 127.5873 0001381  87.9564 272.1586 15.08848755102032,6917.854,95.437,540.674,538.763,0.0
52479.0,STARLINK-3878,PAYLOAD,2024-02-29 20:55:41,15.08848141,0.0001284,53.2153,125.8021,81.8639,278.2499,0.00021076,3.069e-05,0.0,0 STARLINK-3878,1 52479U 22049AE  24060.87200556  .00003069  00000-0  21076-3 0  9996,2 52479  53.2153 125.8021 0001284  81.8639 278.2499 15.08848141102090,6917.856,95.437,540.609,538.832,0.0
52479.0,STARLINK-3878,PAYLOAD,2024-03-01 11:14:09,15.08839478,0.0001586,53.2166,123.1288,97.7748,262.3425,2.1334e-05,5.2e-07,0.0,0 STARLINK-3878,1 52479U 22049AE  24061.46817025  .00000052  00000-0  21334-4 0  9994,2 52479  53.2166 123.1288 0001586  97.7748 262.3425 15.08839478102188,6917.882,95.438,540.844,538.65,0.0
52479.0,STARLINK-3878,PAYLOAD,2024-03-02 09:29:33,15.08847686,0.0001587,53.2165,118.9651,97.78,262.3372,0.00012189,1.653e-05,0.0,0 STARLINK-3878,1 52479U 22049AE  24062.39552616  .00001653  00000-0  12189-3 0  9994,2 52479  53.2165 118.9651 0001587  97.7800 262.3372 15.08847686102320,6917.857,95.437,540.82,538.624,0.0
52479.0,STARLINK-3878,PAYLOAD,2024-03-03 10:55:44,15.08841018,0.0001561,53.2156,114.2058,92.714,267.403,0.00012218,1.657e-05,0.0,0 STARLINK-3878,1 52479U 22049AE  24063.45537104  .00001657  00000-0  12218-3 0  9994,2 52479  53.2156 114.2058 0001561  92.7140 267.4030 15.08841018101402,6917.877,95.437,540.822,538.662,0.0
52479.0,STARLINK-3878,PAYLOAD,2024-03-03 12:31:07,15.08843779,0.0001549,53.2152,113.9082,94.7263,265.3906,0.00015559,2.189e-05,0.0,0 STARLINK-3878,1 52479U 22049AE  24063.52160929  .00002189  00000-0  15559-3 0  9991,2 52479  53.2152 113.9082 0001549  94.7263 265.3906 15.08843779102490,6917.869,95.437,540.805,538.662,0.0
52479.0,STARLINK-3878,PAYLOAD,2024-03-04 10:46:30,15.08858875,0.0001605,53.2156,109.7442,82.407,277.7104,0.00041714,6.36e-05,0.0,0 STARLINK-3878,1 52479U 22049AE  24064.44896215  .00006360  00000-0  41714-3 0  9994,2 52479  53.2156 109.7442 0001605  82.4070 277.7104 15.08858875101556,6917.823,95.436,540.798,538.577,0.0
52479.0,STARLINK-3878,PAYLOAD,2024-03-04 20:18:49,15.08839407,0.0001538,53.2154,107.9597,94.3063,265.8104,3.3158e-05,2.4e-06,0.0,0 STARLINK-3878,1 52479U 22049AE  24064.84640834  .00000240  00000-0  33158-4 0  9997,2 52479  53.2154 107.9597 0001538  94.3063 265.8104 15.08839407101619,6917.882,95.438,540.811,538.683,0.0
52479.0,STARLINK-3878,PAYLOAD,2024-03-05 02:40:22,15.08821329,0.0001589,53.2152,106.7699,98.8779,261.2393,-0.0003189,-5.357e-05,0.0,0 STARLINK-3878,1 52479U 22049AE  24065.11137650 -.00005357  00000-0 -31890-3 0  9991,2 52479  53.2152 106.7699 0001589  98.8779 261.2393 15.08821329101654,6917.937,95.439,540.902,538.703,0.0
52479.0,STARLINK-3878,PAYLOAD,2024-03-05 09:01:55,15.08825641,0.0001703,53.2156,105.581,96.8807,263.2379,-0.00014067,-2.525e-05,0.0,0 STARLINK-3878,1 52479U 22049AE  24065.37634005 -.00002525  00000-0 -14067-3 0  9996,2 52479  53.2156 105.5810 0001703  96.8807 263.2379 15.08825641102779,6917.924,95.438,540.967,538.611,0.0
52479.0,STARLINK-3878,PAYLOAD,2024-03-05 20:09:37,15.088359,0.0001748,53.2166,103.4982,104.1788,255.9398,4.0547e-05,3.57e-06,0.0,0 STARLINK-3878,1 52479U 22049AE  24065.84001797  .00000357  00000-0  40547-4 0  9996,2 52479  53.2166 103.4982 0001748 104.1788 255.9398 15.08835900101763,6917.893,95.438,540.967,538.549,0.0
52479.0,STARLINK-3878,PAYLOAD,2024-03-06 08:52:42,15.08852481,0.0001576,53.2157,101.1204,100.856,259.261,0.00061327,9.489e-05,0.0,0 STARLINK-3878,1 52479U 22049AE  24066.36993428  .00009489  00000-0  61327-3 0  9998,2 52479  53.2157 101.1204 0001576 100.8560 259.2610 15.08852481101841,6917.842,95.437,540.797,538.617,0.0
52479.0,STARLINK-3878,PAYLOAD,2024-03-06 12:03:28,15.08859718,0.0001617,53.2157,100.5255,104.4711,255.6461,0.0011228,0.00017636,0.0,0 STARLINK-3878,1 52479U 22049AE  24066.50241490  .00017636  00000-0  11228-2 0  9996,2 52479  53.2157 100.5255 0001617 104.4711 255.6461 15.08859718102940,6917.82,95.436,540.804,538.567,0.0
52479.0,STARLINK-3878,PAYLOAD,2024-03-07 02:21:56,15.08849025,0.0001662,53.2154,97.8433,105.0672,255.0504,0.00024063,3.545e-05,0.0,0 STARLINK-3878,1 52479U 22049AE  24067.09857501  .00003545  00000-0  24063-3 0  9993,2 52479  53.2154  97.8433 0001662 105.0672 255.0504 15.08849025101958,6917.853,95.437,540.868,538.568,0.0
52479.0,STARLINK-3878,PAYLOAD,2024-03-07 08:43:29,15.08850396,0.0001317,53.2158,96.6593,96.0913,264.023,0.00039179,5.955e-05,0.0,0 STARLINK-3878,1 52479U 22049AE  24067.36353536  .00005955  00000-0  39179-3 0  9993,2 52479  53.2158  96.6593 0001317  96.0913 264.0230 15.08850396103074,6917.849,95.437,540.625,538.803,0.0
52479.0,STARLINK-3878,PAYLOAD,2024-03-08 02:12:44,15.08844161,0.000151,53.2165,93.3873,92.336,267.7805,0.00076502,0.0001191,0.0,0 STARLINK-3878,1 52479U 22049AE  24068.09217775  .00011910  00000-0  76502-3 0  9997,2 52479  53.2165  93.3873 0001510  92.3360 267.7805 15.08844161102101,6917.868,95.437,540.777,538.688,0.0
52479.0,STARLINK-3878,PAYLOAD,2024-03-08 08:34:16,15.08845544,0.0001661,53.2161,92.2006,96.5188,263.5993,0.00033909,5.114e-05,0.0,0 STARLINK-3878,1 52479U 22049AE  24068.35713700  .00005114  00000-0  33909-3 0  9998,2 52479  53.2161  92.2006 0001661  96.5188 263.5993 15.08845544103226,6917.863,95.437,540.878,538.579,0.0
52479.0,STARLINK-3878,PAYLOAD,2024-03-08 18:06:35,15.08841664,0.0001498,53.2162,90.415,88.2038,271.9126,0.00035808,5.416e-05,0.0,0 STARLINK-3878,1 52479U 22049AE  24068.75457884  .00005416  00000-0  35808-3 0  9995,2 52479  53.2162  90.4150 0001498  88.2038 271.9126 15.08841664102204,6917.875,95.437,540.777,538.704,0.0
52479.0,STARLINK-3878,PAYLOAD,2024-03-09 06:49:40,15.08843725,0.0001533,53.2159,88.0385,97.8003,262.3163,0.00025039,3.7e-05,0.0,0 STARLINK-3878,1 52479U 22049AE  24069.28449789  .00003700  00000-0  25039-3 0  9998,2 52479  53.2159  88.0385 0001533  97.8003 262.3163 15.08843725103364,6917.869,95.437,540.795,538.673,0.0
52479.0,STARLINK-3878,PAYLOAD,2024-03-09 17:57:22,15.08845053,0.0001499,53.2159,85.9549,93.7976,266.3187,0.00021096,3.072e-05,0.0,0 STARLINK-3878,1 52479U 22049AE  24069.74817684  .00003072  00000-0  21096-3 0  9993,2 52479  53.2159  85.9549 0001499  93.7976 266.3187 15.08845053103431,6917.865,95.437,540.767,538.693,0.0
52479.0,STARLINK-3878,PAYLOAD,2024-03-10 05:05:04,15.08839204,0.0001601,53.2165,83.8734,92.0125,268.105,5.4152e-05,5.74e-06,0.0,0 STARLINK-3878,1 52479U 22049AE  24070.21185879  .00000574  00000-0  54152-4 0  9995,2 52479  53.2165  83.8734 0001601  92.0125 268.1050 15.08839204102422,6917.883,95.438,540.855,538.64,0.0
52479.0,STARLINK-3878,PAYLOAD,2024-03-10 08:15:50,15.08840715,0.0001569,53.2166,83.2783,89.0014,271.1158,7.8667e-05,9.64e-06,0.0,0 STARLINK-3878,1 52479U 22049AE  24070.34433842  .00000964  00000-0  78667-4 0  9995,2 52479  53.2166  83.2783 0001569  89.0014 271.1158 15.08840715103521,6917.878,95.438,540.829,538.658,0.0
52479.0,STARLINK-3878,PAYLOAD,2024-03-10 17:48:09,15.0884135,0.0001522,53.2158,81.4927,84.4336,275.6829,9.518e-05,1.227e-05,0.0,0 STARLINK-3878,1 52479U 22049AE  24070.74177841  .00001227  00000-0  95180-4 0  9995,2 52479  53.2158  81.4927 0001522  84.4336 275.6829 15.08841350103583,6917.876,95.437,540.794,538.688,0.0
52479.0,STARLINK-3878,PAYLOAD,2024-03-11 08:06:38,15.08826081,0.000173,53.217,78.8155,85.5148,274.6042,0.00040264,6.123e-05,0.0,0 STARLINK-3878,1 52479U 22049AE  24071.33794860  .00006123  00000-0  40264-3 0  9999,2 52479  53.2170  78.8155 0001730  85.5148 274.6042 15.08826081102594,6917.923,95.438,540.985,538.591,0.0
52479.0,STARLINK-3878,PAYLOAD,2024-03-11 17:38:56,15.08843226,0.0001592,53.2177,77.0339,87.374,272.7435,9.0005e-05,1.145e-05,0.0,0 STARLINK-3878,1 52479U 22049AE  24071.73538065  .00001145  00000-0  90005-4 0  9994,2 52479  53.2177  77.0339 0001592  87.3740 272.7435 15.08843226102652,6917.871,95.437,540.837,538.634,0.0
